[
    {
        "Altitude(m)": 559886.48615604,
        "Argument of Periapsis(deg)": 0.033114955553567506,
        "Eccentricity": 0.0,
        "Inclination(deg)": 53.0,
        "Latitude(deg)": 53.08912464443049,
        "Longitude(deg)": -110.14941283310598,
        "Mean Anomaly(deg)": 92.27626433788792,
        "RAAN(deg)": 259.9507168426401,
        "Satellite Name": "Starlink Shell 1 1146",
        "Satellite Number": 1146,
        "Semi-Major Axis(m)": 6931778.249405717,
        "Time(s)": 950
    },
    {
        "Altitude(m)": 559877.9230782812,
        "Argument of Periapsis(deg)": 0.03346353403307874,
        "Eccentricity": 0.0,
        "Inclination(deg)": 53.0,
        "Latitude(deg)": 53.05107587400444,
        "Longitude(deg)": -109.15224003135036,
        "Mean Anomaly(deg)": 92.90309554144467,
        "RAAN(deg)": 259.9501980725626,
        "Satellite Name": "Starlink Shell 1 1146",
        "Satellite Number": 1146,
        "Semi-Major Axis(m)": 6931778.249405717,
        "Time(s)": 960
    },
    {
        "Altitude(m)": 559867.3045199851,
        "Argument of Periapsis(deg)": 0.03381211251258998,
        "Eccentricity": 0.0,
        "Inclination(deg)": 53.0,
        "Latitude(deg)": 53.003984658160796,
        "Longitude(deg)": -108.15711022164997,
        "Mean Anomaly(deg)": 93.52992674500132,
        "RAAN(deg)": 259.94967930248515,
        "Satellite Name": "Starlink Shell 1 1146",
        "Satellite Number": 1146,
        "Semi-Major Axis(m)": 6931778.249405717,
        "Time(s)": 970
    },
    {
        "Altitude(m)": 559854.636889175,
        "Argument of Periapsis(deg)": 0.034160690992101214,
        "Eccentricity": 0.0,
        "Inclination(deg)": 53.0,
        "Latitude(deg)": 52.947885804576885,
        "Longitude(deg)": -107.1644470717255,
        "Mean Anomaly(deg)": 94.15675794855807,
        "RAAN(deg)": 259.9491605324077,
        "Satellite Name": "Starlink Shell 1 1146",
        "Satellite Number": 1146,
        "Semi-Major Axis(m)": 6931778.249405717,
        "Time(s)": 980
    },
    {
        "Altitude(m)": 559839.9278249895,
        "Argument of Periapsis(deg)": 0.034509269471612446,
        "Eccentricity": 0.0,
        "Inclination(deg)": 53.0,
        "Latitude(deg)": 52.88282054993165,
        "Longitude(deg)": -106.17466648290039,
        "Mean Anomaly(deg)": 94.78358915211481,
        "RAAN(deg)": 259.9486417623302,
        "Satellite Name": "Starlink Shell 1 1146",
        "Satellite Number": 1146,
        "Semi-Major Axis(m)": 6931778.249405717,
        "Time(s)": 990
    }
]